{"type": "FeatureCollection", "features": [ {"type": "Feature", "properties": {"norad_id": 34001, "name": "COSMOS 2251 DEB", "group": "cosmos-2251-debris", "lat": -57.2331518881306, "lon": 128.5969699660042, "alt_km": 782.4232776290864, "timestamp": "2025-12-12T09:49:09.125284+00:00", "meta": {"OBJECT_NAME": "COSMOS 2251 DEB", "OBJECT_ID": "1993-036GL", "EPOCH": "2025-12-11T22:59:58.975872", "MEAN_MOTION": 14.37097025, "ECCENTRICITY": 0.0019932, "INCLINATION": 74.0387, "RA_OF_ASC_NODE": 283.024, "ARG_OF_PERICENTER": 4.1697, "MEAN_ANOMALY": 65.6059, "EPHEMERIS_TYPE": 0, "CLASSIFICATION_TYPE": "U", "NORAD_CAT_ID": 34001, "ELEMENT_SET_NO": 999, "REV_AT_EPOCH": 88135, "BSTAR": 0.00033644, "MEAN_MOTION_DOT": 9.75e-06, "MEAN_MOTION_DDOT": 0}, "tle": {"line1": "1 34001U 93036GL  25345.95832148  .00000975  00000+0  33644-3 0  9991", "line2": "2 34001  74.0387 283.0240 0019932   4.1697  65.6059 14.37097025881353"}}, "geometry": {"type": "Point", "coordinates": [128.5969699660042, -57.2331518881306]}}, {"type": "Feature", "properties": {"norad_id": 34003, "name": "COSMOS 2251 DEB", "group": "cosmos-2251-debris", "lat": -12.363249351972298, "lon": 109.28850895378767, "alt_km": 1134.2448893591245, "timestamp": "2025-12-12T09:49:09.125294+00:00", "meta": {"OBJECT_NAME": "COSMOS 2251 DEB", "OBJECT_ID": "1993-036GN", "EPOCH": "2025-12-11T06:53:17.656224", "MEAN_MOTION": 13.84139555, "ECCENTRICITY": 0.02741843, "INCLINATION": 74.0781, "RA_OF_ASC_NODE": 287.5892, "ARG_OF_PERICENTER": 39.9418, "MEAN_ANOMALY": 322.1527, "EPHEMERIS_TYPE": 0, "CLASSIFICATION_TYPE": "U", "NORAD_CAT_ID": 34003, "ELEMENT_SET_NO": 999, "REV_AT_EPOCH": 84405, "BSTAR": 0.0035582926, "MEAN_MOTION_DOT": 5.284e-05, "MEAN_MOTION_DDOT": 0}, "tle": {"line1": "1 34003U 93036GN  25345.28700991  .00005284  00000+0  35583-2 0  9990", "line2": "2 34003  74.0781 287.5892 0274184  39.9418 322.1527 13.84139555844057"}}, "geometry": {"type": "Point", "coordinates": [109.28850895378767, -12.363249351972298]}}, {"type": "Feature", "properties": {"norad_id": 34004, "name": "COSMOS 2251 DEB", "group": "cosmos-2251-debris", "lat": 62.13702490100612, "lon": 100.94481423242128, "alt_km": 742.4044816648766, "timestamp": "2025-12-12T09:49:09.125304+00:00", "meta": {"OBJECT_NAME": "COSMOS 2251 DEB", "OBJECT_ID": "1993-036GP", "EPOCH": "2025-12-11T23:21:26.138016", "MEAN_MOTION": 14.48998167, "ECCENTRICITY": 0.0033374, "INCLINATION": 74.0358, "RA_OF_ASC_NODE": 314.5469, "ARG_OF_PERICENTER": 326.8524, "MEAN_ANOMALY": 33.0543, "EPHEMERIS_TYPE": 0, "CLASSIFICATION_TYPE": "U", "NORAD_CAT_ID": 34004, "ELEMENT_SET_NO": 999, "REV_AT_EPOCH": 88019, "BSTAR": 0.0021188, "MEAN_MOTION_DOT": 8.073e-05, "MEAN_MOTION_DDOT": 0}, "tle": {"line1": "1 34004U 93036GP  25345.97321919  .00008073  00000+0  21188-2 0  9991", "line2": "2 34004  74.0358 314.5469 0033374 326.8524  33.0543 14.48998167880193"}}, "geometry": {"type": "Point", "coordinates": [100.94481423242128, 62.13702490100612]}}, {"type": "Feature", "properties": {"norad_id": 34005, "name": "COSMOS 2251 DEB", "group": "cosmos-2251-debris", "lat": 35.40364117025403, "lon": -134.00915530384407, "alt_km": 748.3679353693842, "timestamp": "2025-12-12T09:49:09.125315+00:00", "meta": {"OBJECT_NAME": "COSMOS 2251 DEB", "OBJECT_ID": "1993-036GQ", "EPOCH": "2025-12-12T01:51:15.264864", "MEAN_MOTION": 14.40303618, "ECCENTRICITY": 0.0020824, "INCLINATION": 74.0444, "RA_OF_ASC_NODE": 214.8713, "ARG_OF_PERICENTER": 333.1316, "MEAN_ANOMALY": 143.6947, "EPHEMERIS_TYPE": 0, "CLASSIFICATION_TYPE": "U", "NORAD_CAT_ID": 34005, "ELEMENT_SET_NO": 999, "REV_AT_EPOCH": 88369, "BSTAR": 0.00015869, "MEAN_MOTION_DOT": 4.78e-06, "MEAN_MOTION_DDOT": 0}, "tle": {"line1": "1 34005U 93036GQ  25346.07726001  .00000478  00000+0  15869-3 0  9996", "line2": "2 34005  74.0444 214.8713 0020824 333.1316 143.6947 14.40303618883697"}}, "geometry": {"type": "Point", "coordinates": [-134.00915530384407, 35.40364117025403]}}, {"type": "Feature", "properties": {"norad_id": 34006, "name": "COSMOS 2251 DEB", "group": "cosmos-2251-debris", "lat": -54.26229993662619, "lon": -12.636466428992513, "alt_km": 596.5148761619375, "timestamp": "2025-12-12T09:49:09.125325+00:00", "meta": {"OBJECT_NAME": "COSMOS 2251 DEB", "OBJECT_ID": "1993-036GR", "EPOCH": "2025-12-11T12:07:42.635712", "MEAN_MOTION": 14.94623961, "ECCENTRICITY": 0.00116095, "INCLINATION": 74.0543, "RA_OF_ASC_NODE": 145.7703, "ARG_OF_PERICENTER": 93.3053, "MEAN_ANOMALY": 323.0725, "EPHEMERIS_TYPE": 0, "CLASSIFICATION_TYPE": "U", "NORAD_CAT_ID": 34006, "ELEMENT_SET_NO": 999, "REV_AT_EPOCH": 88650, "BSTAR": 0.0068858071, "MEAN_MOTION_DOT": 0.00075469, "MEAN_MOTION_DDOT": 0}, "tle": {"line1": "1 34006U 93036GR  25345.50535458  .00075469  00000+0  68858-2 0  9995", "line2": "2 34006  74.0543 145.7703 0011609  93.3053 323.0725 14.94623961886509"}}, "geometry": {"type": "Point", "coordinates": [-12.636466428992513, -54.26229993662619]}}, {"type": "Feature", "properties": {"norad_id": 34007, "name": "COSMOS 2251 DEB", "group": "cosmos-2251-debris", "lat": -29.834704786506958, "lon": 176.99244879674401, "alt_km": 682.3813458844725, "timestamp": "2025-12-12T09:49:09.125336+00:00", "meta": {"OBJECT_NAME": "COSMOS 2251 DEB", "OBJECT_ID": "1993-036GS", "EPOCH": "2025-12-12T02:18:23.020992", "MEAN_MOTION": 14.64778862, "ECCENTRICITY": 0.0044307, "INCLINATION": 74.0197, "RA_OF_ASC_NODE": 348.1354, "ARG_OF_PERICENTER": 123.3, "MEAN_ANOMALY": 237.2424, "EPHEMERIS_TYPE": 0, "CLASSIFICATION_TYPE": "U", "NORAD_CAT_ID": 34007, "ELEMENT_SET_NO": 999, "REV_AT_EPOCH": 89070, "BSTAR": 0.0010641, "MEAN_MOTION_DOT": 5.73e-05, "MEAN_MOTION_DDOT": 0}, "tle": {"line1": "1 34007U 93036GS  25346.09609978  .00005730  00000+0  10641-2 0  9991", "line2": "2 34007  74.0197 348.1354 0044307 123.3000 237.2424 14.64778862890700"}}, "geometry": {"type": "Point", "coordinates": [176.99244879674401, -29.834704786506958]}}, {"type": "Feature", "properties": {"norad_id": 34008, "name": "COSMOS 2251 DEB", "group": "cosmos-2251-debris", "lat": -45.4987757345067, "lon": -45.81383258154198, "alt_km": 770.7515658382899, "timestamp": "2025-12-12T09:49:09.125346+00:00", "meta": {"OBJECT_NAME": "COSMOS 2251 DEB", "OBJECT_ID": "1993-036GT", "EPOCH": "2025-12-12T01:59:39.374304", "MEAN_MOTION": 14.33145612, "ECCENTRICITY": 0.0024291, "INCLINATION": 74.0342, "RA_OF_ASC_NODE": 331.7183, "ARG_OF_PERICENTER": 327.0529, "MEAN_ANOMALY": 103.7403, "EPHEMERIS_TYPE": 0, "CLASSIFICATION_TYPE": "U", "NORAD_CAT_ID": 34008, "ELEMENT_SET_NO": 999, "REV_AT_EPOCH": 87955, "BSTAR": 0.000199, "MEAN_MOTION_DOT": 5.22e-06, "MEAN_MOTION_DDOT": 0}, "tle": {"line1": "1 34008U 93036GT  25346.08309461  .00000522  00000+0  19900-3 0  9997", "line2": "2 34008  74.0342 331.7183 0024291 327.0529 103.7403 14.33145612879551"}}, "geometry": {"type": "Point", "coordinates": [-45.81383258154198, -45.4987757345067]}}, {"type": "Feature", "properties": {"norad_id": 34009, "name": "COSMOS 2251 DEB", "group": "cosmos-2251-debris", "lat": -11.774607982991709, "lon": -25.879546943873383, "alt_km": 775.3081889191863, "timestamp": "2025-12-12T09:49:09.125356+00:00", "meta": {"OBJECT_NAME": "COSMOS 2251 DEB", "OBJECT_ID": "1993-036GU", "EPOCH": "2025-12-12T01:48:59.617728", "MEAN_MOTION": 14.33221332, "ECCENTRICITY": 0.0026485, "INCLINATION": 74.037, "RA_OF_ASC_NODE": 338.1501, "ARG_OF_PERICENTER": 47.9858, "MEAN_ANOMALY": 20.3921, "EPHEMERIS_TYPE": 0, "CLASSIFICATION_TYPE": "U", "NORAD_CAT_ID": 34009, "ELEMENT_SET_NO": 999, "REV_AT_EPOCH": 87936, "BSTAR": 0.00021674, "MEAN_MOTION_DOT": 5.72e-06, "MEAN_MOTION_DDOT": 0}, "tle": {"line1": "1 34009U 93036GU  25346.07569002  .00000572  00000+0  21674-3 0  9992", "line2": "2 34009  74.0370 338.1501 0026485  47.9858  20.3921 14.33221332879360"}}, "geometry": {"type": "Point", "coordinates": [-25.879546943873383, -11.774607982991709]}}, {"type": "Feature", "properties": {"norad_id": 34010, "name": "COSMOS 2251 DEB", "group": "cosmos-2251-debris", "lat": 57.517054767009874, "lon": 77.20822923876985, "alt_km": 502.3262050743515, "timestamp": "2025-12-12T09:49:09.125366+00:00", "meta": {"OBJECT_NAME": "COSMOS 2251 DEB", "OBJECT_ID": "1993-036GV", "EPOCH": "2025-12-11T20:38:58.727616", "MEAN_MOTION": 15.1842534, "ECCENTRICITY": 0.0004939, "INCLINATION": 73.9971, "RA_OF_ASC_NODE": 285.1527, "ARG_OF_PERICENTER": 66.3934, "MEAN_ANOMALY": 293.778, "EPHEMERIS_TYPE": 0, "CLASSIFICATION_TYPE": "U", "NORAD_CAT_ID": 34010, "ELEMENT_SET_NO": 999, "REV_AT_EPOCH": 89272, "BSTAR": 0.0055463, "MEAN_MOTION_DOT": 0.00116043, "MEAN_MOTION_DDOT": 0}, "tle": {"line1": "1 34010U 93036GV  25345.86040194  .00116043  00000+0  55463-2 0  9999", "line2": "2 34010  73.9971 285.1527 0004939  66.3934 293.7780 15.18425340892729"}}, "geometry": {"type": "Point", "coordinates": [77.20822923876985, 57.517054767009874]}}, {"type": "Feature", "properties": {"norad_id": 34011, "name": "COSMOS 2251 DEB", "group": "cosmos-2251-debris", "lat": -16.566024612565457, "lon": -34.1280191971902, "alt_km": 749.0591640369057, "timestamp": "2025-12-12T09:49:09.125377+00:00", "meta": {"OBJECT_NAME": "COSMOS 2251 DEB", "OBJECT_ID": "1993-036GW", "EPOCH": "2025-12-11T23:54:25.193088", "MEAN_MOTION": 14.4176453, "ECCENTRICITY": 0.0035537, "INCLINATION": 74.0154, "RA_OF_ASC_NODE": 331.5293, "ARG_OF_PERICENTER": 55.2711, "MEAN_ANOMALY": 305.1783, "EPHEMERIS_TYPE": 0, "CLASSIFICATION_TYPE": "U", "NORAD_CAT_ID": 34011, "ELEMENT_SET_NO": 999, "REV_AT_EPOCH": 87905, "BSTAR": 0.0012457, "MEAN_MOTION_DOT": 4.074e-05, "MEAN_MOTION_DDOT": 0}, "tle": {"line1": "1 34011U 93036GW  25345.99612492  .00004074  00000+0  12457-2 0  9996", "line2": "2 34011  74.0154 331.5293 0035537  55.2711 305.1783 14.41764530879053"}}, "geometry": {"type": "Point", "coordinates": [-34.1280191971902, -16.566024612565457]}}]}